{
  "type": "FeatureCollection",
  "features": [
    {
      "type": "Feature",
      "properties": {
        "norad_id": 38867,
        "name": "INTELSAT 23 (IS-23)",
        "group": "intelsat",
        "lat": -0.016617057033843592,
        "lon": -28.06952349889107,
        "alt_km": 35789.818481403796,
        "timestamp": "2025-12-03T20:47:57.884747+00:00",
        "meta_object_name": "INTELSAT 23 (IS-23)",
        "meta_object_id": "2012-057A",
        "meta_epoch": "2025-12-03T08:21:59.193792",
        "meta_mean_motion": 1.00269988,
        "meta_eccentricity": 0.0001762,
        "meta_inclination": 0.0465,
        "meta_ra_of_asc_node": 117.5888,
        "meta_arg_of_pericenter": 98.834,
        "meta_mean_anomaly": 288.5116,
        "meta_ephemeris_type": 0,
        "meta_classification_type": "U",
        "meta_norad_cat_id": 38867,
        "meta_element_set_no": 999,
        "meta_rev_at_epoch": 4799,
        "meta_bstar": 0,
        "meta_mean_motion_dot": -2.66e-06,
        "meta_mean_motion_ddot": 0,
        "tle_line1": "1 38867U 12057A   25337.34860178 -.00000266  00000+0  00000+0 0  9997",
        "tle_line2": "2 38867   0.0465 117.5888 0001762  98.8340 288.5116  1.00269988 47998"
      },
      "geometry": {
        "type": "Point",
        "coordinates": [
          -28.06952349889107,
          -0.016617057033843592
        ]
      }
    },
    {
      "type": "Feature",
      "properties": {
        "norad_id": 39360,
        "name": "FM-6",
        "group": "intelsat",
        "lat": 0.008813341248704377,
        "lon": -91.21304879391178,
        "alt_km": 35787.68374594994,
        "timestamp": "2025-12-03T20:47:57.884759+00:00",
        "meta_object_name": "FM-6",
        "meta_object_id": "2013-058A",
        "meta_epoch": "2025-12-03T09:46:43.577184",
        "meta_mean_motion": 1.00270039,
        "meta_eccentricity": 0.0002808,
        "meta_inclination": 0.0045,
        "meta_ra_of_asc_node": 100.0158,
        "meta_arg_of_pericenter": 73.0769,
        "meta_mean_anomaly": 289.9269,
        "meta_ephemeris_type": 0,
        "meta_classification_type": "U",
        "meta_norad_cat_id": 39360,
        "meta_element_set_no": 999,
        "meta_rev_at_epoch": 4411,
        "meta_bstar": 0,
        "meta_mean_motion_dot": 2e-08,
        "meta_mean_motion_ddot": 0,
        "tle_line1": "1 39360U 13058A   25337.40744881  .00000002  00000+0  00000+0 0  9994",
        "tle_line2": "2 39360   0.0045 100.0158 0002808  73.0769 289.9269  1.00270039 44114"
      },
      "geometry": {
        "type": "Point",
        "coordinates": [
          -91.21304879391178,
          0.008813341248704377
        ]
      }
    },
    {
      "type": "Feature",
      "properties": {
        "norad_id": 40271,
        "name": "INTELSAT 30 (IS-30)",
        "group": "intelsat",
        "lat": -0.025978176623475503,
        "lon": -70.14315513188214,
        "alt_km": 35791.01429609234,
        "timestamp": "2025-12-03T20:47:57.884770+00:00",
        "meta_object_name": "INTELSAT 30 (IS-30)",
        "meta_object_id": "2014-062A",
        "meta_epoch": "2025-12-03T09:52:43.002048",
        "meta_mean_motion": 1.00269864,
        "meta_eccentricity": 0.0001171,
        "meta_inclination": 0.0141,
        "meta_ra_of_asc_node": 8.5662,
        "meta_arg_of_pericenter": 73.1909,
        "meta_mean_anomaly": 43.8727,
        "meta_ephemeris_type": 0,
        "meta_classification_type": "U",
        "meta_norad_cat_id": 40271,
        "meta_element_set_no": 999,
        "meta_rev_at_epoch": 482,
        "meta_bstar": 0,
        "meta_mean_motion_dot": -1.32e-06,
        "meta_mean_motion_ddot": 0,
        "tle_line1": "1 40271U 14062A   25337.41160882 -.00000132  00000+0  00000+0 0  9992",
        "tle_line2": "2 40271   0.0141   8.5662 0001171  73.1909  43.8727  1.00269864  4829"
      },
      "geometry": {
        "type": "Point",
        "coordinates": [
          -70.14315513188214,
          -0.025978176623475503
        ]
      }
    },
    {
      "type": "Feature",
      "properties": {
        "norad_id": 40333,
        "name": "DIRECTV 14",
        "group": "intelsat",
        "lat": -0.027715152038737843,
        "lon": -74.29768311837813,
        "alt_km": 35785.96890087248,
        "timestamp": "2025-12-03T20:47:57.884782+00:00",
        "meta_object_name": "DIRECTV 14",
        "meta_object_id": "2014-078B",
        "meta_epoch": "2025-12-03T09:51:35.610048",
        "meta_mean_motion": 1.00271329,
        "meta_eccentricity": 4.35e-05,
        "meta_inclination": 0.0185,
        "meta_ra_of_asc_node": 328.5486,
        "meta_arg_of_pericenter": 234.8734,
        "meta_mean_anomaly": 277.7581,
        "meta_ephemeris_type": 0,
        "meta_classification_type": "U",
        "meta_norad_cat_id": 40333,
        "meta_element_set_no": 999,
        "meta_rev_at_epoch": 4008,
        "meta_bstar": 0,
        "meta_mean_motion_dot": -1.07e-06,
        "meta_mean_motion_ddot": 0,
        "tle_line1": "1 40333U 14078B   25337.41082882 -.00000107  00000+0  00000+0 0  9993",
        "tle_line2": "2 40333   0.0185 328.5486 0000435 234.8734 277.7581  1.00271329 40082"
      },
      "geometry": {
        "type": "Point",
        "coordinates": [
          -74.29768311837813,
          -0.027715152038737843
        ]
      }
    },
    {
      "type": "Feature",
      "properties": {
        "norad_id": 40663,
        "name": "DIRECTV 15",
        "group": "intelsat",
        "lat": -0.02475241496867105,
        "lon": -77.95969281327152,
        "alt_km": 35785.26554187319,
        "timestamp": "2025-12-03T20:47:57.884794+00:00",
        "meta_object_name": "DIRECTV 15",
        "meta_object_id": "2015-026A",
        "meta_epoch": "2025-12-02T15:00:23.376384",
        "meta_mean_motion": 1.00270418,
        "meta_eccentricity": 2.986e-05,
        "meta_inclination": 0.0433,
        "meta_ra_of_asc_node": 100.4968,
        "meta_arg_of_pericenter": 166.0499,
        "meta_mean_anomaly": 287.4051,
        "meta_ephemeris_type": 0,
        "meta_classification_type": "U",
        "meta_norad_cat_id": 40663,
        "meta_element_set_no": 999,
        "meta_rev_at_epoch": 3849,
        "meta_bstar": 0,
        "meta_mean_motion_dot": -8.2e-07,
        "meta_mean_motion_ddot": 0,
        "tle_line1": "1 40663U 15026A   25336.62527056 -.00000082  00000+0  00000+0 0  9994",
        "tle_line2": "2 40663   0.0433 100.4968 0000298 166.0499 287.4051  1.00270418 38497"
      },
      "geometry": {
        "type": "Point",
        "coordinates": [
          -77.95969281327152,
          -0.02475241496867105
        ]
      }
    },
    {
      "type": "Feature",
      "properties": {
        "norad_id": 40664,
        "name": "SKY MEXICO-1",
        "group": "intelsat",
        "lat": -0.01532005606388772,
        "lon": -53.82293117118176,
        "alt_km": 35777.49800297719,
        "timestamp": "2025-12-03T20:47:57.884806+00:00",
        "meta_object_name": "SKY MEXICO-1",
        "meta_object_id": "2015-026B",
        "meta_epoch": "2025-12-03T09:57:27.549216",
        "meta_mean_motion": 1.00270532,
        "meta_eccentricity": 0.0002768,
        "meta_inclination": 0.0167,
        "meta_ra_of_asc_node": 333.4226,
        "meta_arg_of_pericenter": 292.8884,
        "meta_mean_anomaly": 236.8001,
        "meta_ephemeris_type": 0,
        "meta_classification_type": "U",
        "meta_norad_cat_id": 40664,
        "meta_element_set_no": 999,
        "meta_rev_at_epoch": 3849,
        "meta_bstar": 0,
        "meta_mean_motion_dot": -2.16e-06,
        "meta_mean_motion_ddot": 0,
        "tle_line1": "1 40664U 15026B   25337.41490219 -.00000216  00000+0  00000+0 0  9992",
        "tle_line2": "2 40664   0.0167 333.4226 0002768 292.8884 236.8001  1.00270532 38497"
      },
      "geometry": {
        "type": "Point",
        "coordinates": [
          -53.82293117118176,
          -0.01532005606388772
        ]
      }
    },
    {
      "type": "Feature",
      "properties": {
        "norad_id": 40874,
        "name": "INTELSAT 34 (IS-34)",
        "group": "intelsat",
        "lat": 0.012956341285669243,
        "lon": -30.58213073326505,
        "alt_km": 35788.7780906957,
        "timestamp": "2025-12-03T20:47:57.884818+00:00",
        "meta_object_name": "INTELSAT 34 (IS-34)",
        "meta_object_id": "2015-039A",
        "meta_epoch": "2025-12-03T08:21:21.754080",
        "meta_mean_motion": 1.00270274,
        "meta_eccentricity": 5.59e-05,
        "meta_inclination": 0.0131,
        "meta_ra_of_asc_node": 302.376,
        "meta_arg_of_pericenter": 226.1584,
        "meta_mean_anomaly": 333.7468,
        "meta_ephemeris_type": 0,
        "meta_classification_type": "U",
        "meta_norad_cat_id": 40874,
        "meta_element_set_no": 999,
        "meta_rev_at_epoch": 3766,
        "meta_bstar": 0,
        "meta_mean_motion_dot": -2.67e-06,
        "meta_mean_motion_ddot": 0,
        "tle_line1": "1 40874U 15039A   25337.34816845 -.00000267  00000+0  00000+0 0  9994",
        "tle_line2": "2 40874   0.0131 302.3760 0000559 226.1584 333.7468  1.00270274 37667"
      },
      "geometry": {
        "type": "Point",
        "coordinates": [
          -30.58213073326505,
          0.012956341285669243
        ]
      }
    }
  ]
}